{
  "generated_at": "2026-07-13T09:26:00+00:00",
  "source": "celestrak.org",
  "satellite_count": 9,
  "satellites": [
    {
      "id": "terra",
      "name": "TERRA",
      "platform": "EOS",
      "sensor": "MODIS",
      "swath_km": 2330,
      "color": "#39d0d8",
      "norad": 25994,
      "tle1": "1 25994U 99068A   26193.83347969  .00000213  00000+0  52367-4 0  9993",
      "tle2": "2 25994  97.9443 242.3611 0003317 127.4066 284.6397 14.61122648413356"
    },
    {
      "id": "aqua",
      "name": "AQUA",
      "platform": "EOS",
      "sensor": "MODIS",
      "swath_km": 2330,
      "color": "#2bb673",
      "norad": 27424,
      "tle1": "1 27424U 02022A   26193.91276689  .00000389  00000+0  87043-4 0  9999",
      "tle2": "2 27424  98.4294 163.7125 0000864 108.8614 267.3759 14.62195196287031"
    },
    {
      "id": "snpp",
      "name": "SUOMI NPP",
      "platform": "JPSS",
      "sensor": "VIIRS",
      "swath_km": 3000,
      "color": "#ff8c42",
      "norad": 37849,
      "tle1": "1 37849U 11061A   26193.85645479  .00000011  00000+0  26468-4 0  9990",
      "tle2": "2 37849  98.7956 134.5579 0000650 228.5544 131.5576 14.19522337762080"
    },
    {
      "id": "noaa20",
      "name": "NOAA 20",
      "platform": "JPSS",
      "sensor": "VIIRS",
      "swath_km": 3000,
      "color": "#ffaa00",
      "norad": 43013,
      "tle1": "1 43013U 17073A   26193.79930860  .00000016  00000+0  28674-4 0  9999",
      "tle2": "2 43013  98.7773 133.0349 0001299 126.5566 233.5729 14.19516178448100"
    },
    {
      "id": "noaa21",
      "name": "NOAA 21",
      "platform": "JPSS",
      "sensor": "VIIRS",
      "swath_km": 3000,
      "color": "#ff5a3a",
      "norad": 54234,
      "tle1": "1 54234U 22150A   26193.83164468 -.00000006  00000+0  17959-4 0  9990",
      "tle2": "2 54234  98.7060 132.1902 0002778 108.8383 251.3095 14.19540841190184"
    },
    {
      "id": "sentinel2a",
      "name": "SENTINEL-2A",
      "platform": "Copernicus",
      "sensor": "MSI",
      "swath_km": 290,
      "color": "#b388ff",
      "norad": 40697,
      "tle1": "1 40697U 15028A   26193.80909691  .00000074  00000+0  44741-4 0  9999",
      "tle2": "2 40697  98.5682 268.2960 0001267  94.8760 265.2568 14.30814069577390"
    },
    {
      "id": "sentinel2b",
      "name": "SENTINEL-2B",
      "platform": "Copernicus",
      "sensor": "MSI",
      "swath_km": 290,
      "color": "#9d6dff",
      "norad": 42063,
      "tle1": "1 42063U 17013A   26193.80190916  .00000053  00000+0  37050-4 0  9998",
      "tle2": "2 42063  98.5690 268.2138 0001212  89.7337 270.3985 14.30814679488307"
    },
    {
      "id": "sentinel3a",
      "name": "SENTINEL-3A",
      "platform": "Copernicus",
      "sensor": "OLCI",
      "swath_km": 1270,
      "color": "#7a4fff",
      "norad": 41335,
      "tle1": "1 41335U 16011A   26193.81396524  .00000043  00000+0  35880-4 0  9998",
      "tle2": "2 41335  98.6238 260.8281 0001371  90.9122 269.2216 14.26739357541719"
    },
    {
      "id": "sentinel3b",
      "name": "SENTINEL-3B",
      "platform": "Copernicus",
      "sensor": "OLCI",
      "swath_km": 1270,
      "color": "#5e3bff",
      "norad": 43437,
      "tle1": "1 43437U 18039A   26193.78710032  .00000004  00000+0  19507-4 0  9990",
      "tle2": "2 43437  98.6237 260.9506 0001083 119.4324 240.6964 14.26735933427773"
    }
  ]
}